H1 CPF 01  gfz 2022 09 02 00  7451 tandemx   
H2 1003001  6202 36605    2022 09 02 00 59 42 2022 09 07 00 00 42   120 1 1  0 0 0
H9
10 0 59826  29502.000000  0   -5798583.759   3718096.737    121645.998
10 0 59826  29622.000000  0   -5636347.586   3824973.506   1023075.271
10 0 59826  29742.000000  0   -5374314.696   3861263.881   1906487.667
10 0 59826  29862.000000  0   -5018304.047   3824624.820   2756321.837
10 0 59826  29982.000000  0   -4575824.579   3714117.123   3557610.335
10 0 59826  30102.000000  0   -4055913.739   3530248.272   4296250.318
10 0 59826  30222.000000  0   -3468947.487   3274984.521   4959254.852
10 0 59826  30342.000000  0   -2826427.463   2951734.411   5534982.198
10 0 59826  30462.000000  0   -2140748.699   2565302.356   6013338.122
10 0 59826  30582.000000  0   -1424955.081   2121814.159   6385948.640
10 0 59826  30702.000000  0    -692486.593   1628616.119   6646299.620
10 0 59826  30822.000000  0      43073.424   1094150.845   6789843.589
10 0 59826  30942.000000  0     768249.897    527811.224   6814074.657
10 0 59826  31062.000000  0    1469922.058    -60224.539   6718569.075
10 0 59826  31182.000000  0    2135559.717   -659175.015   6504992.714
10 0 59826  31302.000000  0    2753446.623  -1257852.804   6177074.406
10 0 59826  31422.000000  0    3312888.205  -1844872.570   5740545.767
10 0 59826  31542.000000  0    3804400.233  -2408868.098   5203046.471
10 0 59826  31662.000000  0    4219873.892  -2938713.007   4573996.148
10 0 59826  31782.000000  0    4552715.041  -3423742.861   3864435.003
10 0 59826  31902.000000  0    4797954.926  -3853973.472   3086833.483
10 0 59826  32022.000000  0    4952329.868  -4220309.898   2254873.275
10 0 59826  32142.000000  0    5014325.941  -4514740.659   1383203.224
10 0 59826  32262.000000  0    4984188.045  -4730513.183    487176.329
10 0 59826  32382.000000  0    4863893.558  -4862286.170   -417427.882
10 0 59826  32502.000000  0    4657090.772  -4906253.914  -1314689.849
10 0 59826  32622.000000  0    4369003.544  -4860239.347  -2188839.239
10 0 59826  32742.000000  0    4006304.523  -4723753.937  -3024539.345
10 0 59826  32862.000000  0    3576960.711  -4498023.052  -3807160.845
10 0 59826  32982.000000  0    3090056.318  -4185977.050  -4523039.191
10 0 59826  33102.000000  0    2555596.890  -3792208.045  -5159711.112
10 0 59826  33222.000000  0    1984299.673  -3322894.589  -5706124.131
10 0 59826  33342.000000  0    1387377.691  -2785698.481  -6152817.911
10 0 59826  33462.000000  0     776319.895  -2189635.467  -6492078.118
10 0 59826  33582.000000  0     162671.128  -1544920.223  -6718059.371
10 0 59826  33702.000000  0    -442182.504   -862789.990  -6826875.189
10 0 59826  33822.000000  0   -1027219.325   -155310.806  -6816656.672
10 0 59826  33942.000000  0   -1581978.013    564831.133  -6687580.599
10 0 59826  34062.000000  0   -2096740.351   1284550.906  -6441866.279
10 0 59826  34182.000000  0   -2562697.437   1990596.667  -6083741.547
10 0 59826  34302.000000  0   -2972098.860   2669787.904  -5619378.534
10 0 59826  34422.000000  0   -3318382.490   3309258.858  -5056798.671
10 0 59826  34542.000000  0   -3596283.391   3896702.374  -4405746.053
10 0 59826  34662.000000  0   -3801918.486   4420609.448  -3677528.562
10 0 59826  34782.000000  0   -3932843.467   4870498.702  -2884829.490
10 0 59826  34902.000000  0   -3988082.438   5237131.560  -2041493.566
10 0 59826  35022.000000  0   -3968130.078   5512708.701  -1162288.580
10 0 59826  35142.000000  0   -3874923.952   5691043.186   -262645.232
10 0 59826  35262.000000  0   -3711786.311   5767701.902    641619.246
10 0 59826  35382.000000  0   -3483338.654   5740113.744   1534586.592
10 0 59826  35502.000000  0   -3195388.403   5607641.489   2400528.210
10 0 59826  35622.000000  0   -2854790.275   5371612.136   3224192.394
10 0 59826  35742.000000  0   -2469288.079   5035306.801   3991079.275
10 0 59826  35862.000000  0   -2047341.056   4603912.566   4687700.242
10 0 59826  35982.000000  0   -1597939.185   4084436.596   5301816.921
10 0 59826  36102.000000  0   -1130411.151   3485584.673   5822655.661
10 0 59826  36222.000000  0    -654230.252   2817607.018   6241092.297
10 0 59826  36342.000000  0    -178822.871   2092115.888   6549805.893
10 0 59826  36462.000000  0     286616.957   1321879.854   6743400.803
10 0 59826  36582.000000  0     733304.770    520596.005   6818495.819
10 0 59826  36702.000000  0    1153030.419   -297353.729   6773778.546
10 0 59826  36822.000000  0    1538308.061  -1117159.785   6610027.982
10 0 59826  36942.000000  0    1882509.631  -1923852.743   6330101.944
10 0 59826  37062.000000  0    2179979.449  -2702576.393   5938891.126
10 0 59826  37182.000000  0    2426128.573  -3438863.108   5443238.909
10 0 59826  37302.000000  0    2617506.711  -4118905.645   4851826.782
10 0 59826  37422.000000  0    2751850.535  -4729820.525   4175028.193
10 0 59826  37542.000000  0    2828108.656  -5259899.097   3424730.565
10 0 59826  37662.000000  0    2846440.875  -5698839.673   2614128.193
10 0 59826  37782.000000  0    2808191.834  -6037956.166   1757488.740
10 0 59826  37902.000000  0    2715838.909  -6270355.506    869897.789
10 0 59826  38022.000000  0    2572917.598  -6391082.044    -33011.691
10 0 59826  38142.000000  0    2383924.819  -6397225.655   -935343.017
10 0 59826  38262.000000  0    2154201.386  -6287986.893  -1821226.234
10 0 59826  38382.000000  0    1889797.532  -6064699.411  -2675104.780
10 0 59826  38502.000000  0    1597324.808  -5730810.298  -3482016.325
10 0 59826  38622.000000  0    1283798.452  -5291814.763  -4227857.041
10 0 59826  38742.000000  0     956477.253  -4755153.987  -4899626.390
10 0 59826  38862.000000  0     622701.826  -4130077.223  -5485648.409
10 0 59826  38982.000000  0     289735.725  -3427472.046  -5975766.619
10 0 59826  39102.000000  0     -35387.220  -2659666.387  -6361509.439
10 0 59826  39222.000000  0    -346006.171  -1840207.540  -6636224.960
10 0 59826  39342.000000  0    -635964.784   -983622.384  -6795184.681
10 0 59826  39462.000000  0    -899728.490   -105162.347  -6835656.728
10 0 59826  39582.000000  0   -1132486.542    779463.262  -6756946.667
10 0 59826  39702.000000  0   -1330237.540   1654360.612  -6560407.618
10 0 59826  39822.000000  0   -1489856.638   2503729.584  -6249419.247
10 0 59826  39942.000000  0   -1609144.314   3312142.804  -5829337.477
10 0 59826  40062.000000  0   -1686856.177   4064823.460  -5307411.932
10 0 59826  40182.000000  0   -1722712.528   4747915.671  -4692672.431
10 0 59826  40302.000000  0   -1717388.335   5348744.505  -3995783.894
10 0 59826  40422.000000  0   -1672482.515   5856058.441  -3228870.138
10 0 59826  40542.000000  0   -1590466.749   6260249.081  -2405310.270
10 0 59826  40662.000000  0   -1474615.612   6553544.866  -1539509.922
10 0 59826  40782.000000  0   -1328918.525   6730171.838   -646649.071
10 0 59826  40902.000000  0   -1157975.829   6786477.498    257586.267
10 0 59826  41022.000000  0    -966880.710   6721015.457   1157286.383
10 0 59826  41142.000000  0    -761090.490   6534584.137   2036608.856
10 0 59826  41262.000000  0    -546290.318   6230217.048   2880067.149
10 0 59826  41382.000000  0    -328253.084   5813129.368   3672809.817
10 0 59826  41502.000000  0    -112699.794   5290623.136   4400886.757
10 0 59826  41622.000000  0      94836.907   4671951.400   5051501.329
10 0 59826  41742.000000  0     289144.144   3968139.940   5613233.816
10 0 59826  41862.000000  0     465449.599   3191783.814   6076237.304
10 0 59826  41982.000000  0     619529.796   2356813.457   6432406.948
10 0 59826  42102.000000  0     747803.901   1478238.738   6675515.378
10 0 59826  42222.000000  0     847411.616    571875.245   6801315.852
10 0 59826  42342.000000  0     916273.548   -345941.077   6807610.940
10 0 59826  42462.000000  0     953133.208  -1258647.225   6694289.622
10 0 59826  42582.000000  0     957579.856  -2149752.048   6463329.672
10 0 59826  42702.000000  0     930051.887  -3003134.358   6118765.930
10 0 59826  42822.000000  0     871820.232  -3803336.995   5666623.241
10 0 59826  42942.000000  0     784952.750  -4535848.455   5114814.938
10 0 59826  43062.000000  0     672261.155  -5187369.776   4473011.040
10 0 59826  43182.000000  0     537230.268  -5746064.315   3752475.406
10 0 59826  43302.000000  0     383930.332  -6201783.454   2965870.941
10 0 59826  43422.000000  0     216914.769  -6546261.328   2127036.915
10 0 59826  43542.000000  0      41105.326  -6773273.483   1250742.967
10 0 59826  43662.000000  0    -138331.805  -6878758.419    352424.629
10 0 59826  43782.000000  0    -316117.310  -6860895.853   -552098.135
10 0 59826  43902.000000  0    -486992.412  -6720137.372  -1446909.702
10 0 59826  44022.000000  0    -645851.533  -6459190.905  -2316286.997
10 0 59826  44142.000000  0    -787871.095  -6082961.641  -3144981.891
10 0 59826  44262.000000  0    -908631.513  -5598449.965  -3918493.182
10 0 59826  44382.000000  0   -1004228.990  -5014608.396  -4623321.528
10 0 59826  44502.000000  0   -1071374.328  -4342163.049  -5247201.067
10 0 59826  44622.000000  0   -1107477.018  -3593405.667  -5779305.617
10 0 59826  44742.000000  0   -1110712.637  -2781960.516  -6210427.081
10 0 59826  44862.000000  0   -1080072.648  -1922530.940  -6533123.864
10 0 59826  44982.000000  0   -1015396.038  -1030631.362  -6741837.539
10 0 59826  45102.000000  0    -917382.777   -122309.766  -6832978.745
10 0 59826  45222.000000  0    -787588.084    786136.104  -6804981.610
10 0 59826  45342.000000  0    -628397.828   1678443.424  -6658327.018
10 0 59826  45462.000000  0    -442986.365   2538667.688  -6395535.252
10 0 59826  45582.000000  0    -235256.644   3351461.285  -6021128.729
10 0 59826  45702.000000  0      -9762.400   4102345.014  -5541563.194
10 0 59826  45822.000000  0     228385.612   4777965.744  -4965126.446
10 0 59826  45942.000000  0     473627.504   5366338.030  -4301807.184
99
